[{"OBJECT_NAME":"HST","OBJECT_ID":"1990-037B","EPOCH":"2026-03-09T03:50:04.164288","MEAN_MOTION":15.29473555,"ECCENTRICITY":0.00018372,"INCLINATION":28.4717,"RA_OF_ASC_NODE":43.6133,"ARG_OF_PERICENTER":120.9992,"MEAN_ANOMALY":239.0785,"EPHEMERIS_TYPE":0,"CLASSIFICATION_TYPE":"U","NORAD_CAT_ID":20580,"ELEMENT_SET_NO":999,"REV_AT_EPOCH":77323,"BSTAR":0.0003002261,"MEAN_MOTION_DOT":9.063e-5,"MEAN_MOTION_DDOT":0},{"OBJECT_NAME":"STARLINK-33638","OBJECT_ID":"2025-069D","EPOCH":"2026-03-09T10:27:55.697184","MEAN_MOTION":15.30183365,"ECCENTRICITY":0.0001288,"INCLINATION":53.1577,"RA_OF_ASC_NODE":143.8151,"ARG_OF_PERICENTER":102.7718,"MEAN_ANOMALY":257.3427,"EPHEMERIS_TYPE":0,"CLASSIFICATION_TYPE":"U","NORAD_CAT_ID":63436,"ELEMENT_SET_NO":999,"REV_AT_EPOCH":5336,"BSTAR":0.00077282913,"MEAN_MOTION_DOT":0.00022588,"MEAN_MOTION_DDOT":0}]
